NORAD_CAT_ID,OBJECT_NAME,OBJECT_TYPE,EPOCH,MEAN_MOTION,ECCENTRICITY,INCLINATION,RA_OF_ASC_NODE,ARG_OF_PERICENTER,MEAN_ANOMALY,BSTAR,MEAN_MOTION_DOT,MEAN_MOTION_DDOT,TLE_LINE0,TLE_LINE1,TLE_LINE2,SEMIMAJOR_AXIS,PERIOD,APOGEE,PERIGEE,DECAYED
55763.0,STARLINK-5593,PAYLOAD,2023-10-26 22:39:51,14.98332302,0.0002794,69.9994,264.6223,271.1491,88.9348,4.1213e-05,3.99e-06,0.0,0 STARLINK-5593,1 55763U 23028Y   23299.94435166  .00000399  00000-0  41213-4 0  9990,2 55763  69.9994 264.6223 0002794 271.1491  88.9348 14.98332302 36516,6950.186,96.107,573.993,570.109,0.0
55763.0,STARLINK-5593,PAYLOAD,2023-10-27 05:04:24,14.98333024,0.0002854,69.9991,263.949,275.0146,85.0687,9.1402e-05,9.98e-06,0.0,0 STARLINK-5593,1 55763U 23028Y   23300.21139000  .00000998  00000-0  91402-4 0  9991,2 55763  69.9991 263.9490 0002854 275.0146  85.0687 14.98333024 36558,6950.184,96.107,574.032,570.065,0.0
55763.0,STARLINK-5593,PAYLOAD,2023-10-27 08:16:39,14.98370275,0.0002663,69.9995,263.6131,274.4818,85.6037,-0.00045438,-5.516e-05,0.0,0 STARLINK-5593,1 55763U 23028Y   23300.34489656 -.00005516  00000-0 -45438-3 0  9990,2 55763  69.9995 263.6131 0002663 274.4818  85.6037 14.98370275 36574,6950.068,96.104,573.784,570.083,0.0
55763.0,STARLINK-5593,PAYLOAD,2023-10-27 14:41:12,14.98361056,0.0002157,70.0009,262.9375,281.1302,78.9614,-0.00051133,-6.193e-05,0.0,0 STARLINK-5593,1 55763U 23028Y   23300.61194457 -.00006193  00000-0 -51133-3 0  9993,2 55763  70.0009 262.9375 0002157 281.1302  78.9614 14.98361056 36614,6950.097,96.105,573.461,570.463,0.0
55763.0,STARLINK-5593,PAYLOAD,2023-10-27 22:41:53,14.98331714,0.0002418,70.0013,262.0969,272.8668,87.2214,-5.2608e-05,-7.21e-06,0.0,0 STARLINK-5593,1 55763U 23028Y   23300.94575356 -.00000721  00000-0 -52608-4 0  9990,2 55763  70.0013 262.0969 0002418 272.8668  87.2214 14.98331714 36663,6950.188,96.107,573.733,570.372,0.0
55763.0,STARLINK-5593,PAYLOAD,2023-10-28 00:18:01,14.98325971,0.0002393,69.9996,261.9297,267.9851,92.1034,-2.2335e-05,-3.59e-06,0.0,0 STARLINK-5593,1 55763U 23028Y   23301.01251605 -.00000359  00000-0 -22335-4 0  9998,2 55763  69.9996 261.9297 0002393 267.9851  92.1034 14.98325971 36677,6950.205,96.107,573.734,570.407,0.0
55763.0,STARLINK-5593,PAYLOAD,2023-10-28 06:42:34,14.98320785,0.0002384,70.0003,261.2569,262.4002,97.6886,-4.271e-05,-6.02e-06,0.0,0 STARLINK-5593,1 55763U 23028Y   23301.27956046 -.00000602  00000-0 -42710-4 0  9997,2 55763  70.0003 261.2569 0002384 262.4002  97.6886 14.98320785 36710,6950.221,96.108,573.743,570.429,0.0
55763.0,STARLINK-5593,PAYLOAD,2023-10-28 22:43:54,14.98330981,0.0002715,69.9993,259.5735,262.7322,97.3528,-6.6646e-05,-8.88e-06,0.0,0 STARLINK-5593,1 55763U 23028Y   23301.94715523 -.00000888  00000-0 -66646-4 0  9994,2 55763  69.9993 259.5735 0002715 262.7322  97.3528 14.98330981 36816,6950.19,96.107,573.942,570.168,0.0
55763.0,STARLINK-5593,PAYLOAD,2023-10-29 03:32:18,14.98334113,0.0002764,69.9992,259.0687,266.4125,93.6718,1.4711e-06,-7.5e-07,0.0,0 STARLINK-5593,1 55763U 23028Y   23302.14743142 -.00000075  00000-0  14711-5 0  9999,2 55763  69.9992 259.0687 0002764 266.4125  93.6718 14.98334113 36846,6950.18,96.107,573.966,570.124,0.0
55763.0,STARLINK-5593,PAYLOAD,2023-10-29 06:44:33,14.98337336,0.000271,69.9992,258.7312,264.4359,95.6491,2.7391e-05,2.34e-06,0.0,0 STARLINK-5593,1 55763U 23028Y   23302.28094815  .00000234  00000-0  27391-4 0  9993,2 55763  69.9992 258.7312 0002710 264.4359  95.6491 14.98337336 36867,6950.17,96.107,573.919,570.152,0.0
55763.0,STARLINK-5593,PAYLOAD,2023-10-29 22:45:55,14.98322217,0.0002577,69.9998,257.047,264.7089,95.3776,6.5288e-05,6.86e-06,0.0,0 STARLINK-5593,1 55763U 23028Y   23302.94855686  .00000686  00000-0  65288-4 0  9995,2 55763  69.9998 257.0470 0002577 264.7089  95.3776 14.98322217 36960,6950.217,96.107,573.873,570.291,0.0
55763.0,STARLINK-5593,PAYLOAD,2023-10-30 05:10:27,14.98325597,0.0002804,69.9992,256.3747,264.6306,95.4534,3.4208e-05,3.15e-06,0.0,0 STARLINK-5593,1 55763U 23028Y   23303.21559654  .00000315  00000-0  34208-4 0  9999,2 55763  69.9992 256.3747 0002804 264.6306  95.4534 14.98325597 37000,6950.207,96.107,574.02,570.123,0.0
55763.0,STARLINK-5593,PAYLOAD,2023-10-30 21:11:48,14.98327909,0.0002677,69.9997,254.6917,271.2693,88.8159,2.0395e-05,1.5e-06,0.0,0 STARLINK-5593,1 55763U 23028Y   23303.88319734  .00000150  00000-0  20395-4 0  9994,2 55763  69.9997 254.6917 0002677 271.2693  88.8159 14.98327909 37105,6950.199,96.107,573.925,570.204,0.0
55763.0,STARLINK-5593,PAYLOAD,2023-10-31 06:48:36,14.9831245,0.0002383,70.0002,253.6811,263.5734,96.5154,0.00032,3.725e-05,0.0,0 STARLINK-5593,1 55763U 23028Y   23304.28376009  .00003725  00000-0  32000-3 0  9993,2 55763  70.0002 253.6811 0002383 263.5734  96.5154 14.98312450 37163,6950.247,96.108,573.768,570.456,0.0
55763.0,STARLINK-5593,PAYLOAD,2023-10-31 19:37:41,14.98340966,0.0002262,70.0003,252.3347,266.8469,93.2431,-0.00014088,-1.774e-05,0.0,0 STARLINK-5593,1 55763U 23028Y   23304.81783582 -.00001774  00000-0 -14088-3 0  9990,2 55763  70.0003 252.3347 0002262 266.8469  93.2431 14.98340966 37245,6950.159,96.106,573.596,570.452,0.0
55763.0,STARLINK-5593,PAYLOAD,2023-10-31 22:49:57,14.98328362,0.000264,70.0003,251.998,267.6665,92.4192,5.1189e-05,5.18e-06,0.0,0 STARLINK-5593,1 55763U 23028Y   23304.95135627  .00000518  00000-0  51189-4 0  9993,2 55763  70.0003 251.9980 0002640 267.6665  92.4192 14.98328362 37263,6950.198,96.107,573.898,570.228,0.0
55763.0,STARLINK-5593,PAYLOAD,2023-11-01 13:15:09,14.98331298,0.000263,70.0005,250.4838,270.969,89.1167,2.2947e-05,1.81e-06,0.0,0 STARLINK-5593,1 55763U 23028Y   23305.55219509  .00000181  00000-0  22947-4 0  9998,2 55763  70.0005 250.4838 0002630 270.9690  89.1167 14.98331298 37352,6950.189,96.107,573.882,570.226,0.0
55763.0,STARLINK-5593,PAYLOAD,2023-11-01 19:39:41,14.98318824,0.0002755,70.0003,249.8104,269.9625,90.1218,0.0002564,2.967e-05,0.0,0 STARLINK-5593,1 55763U 23028Y   23305.81923566  .00002967  00000-0  25640-3 0  9998,2 55763  70.0003 249.8104 0002755 269.9625  90.1218 14.98318824 37395,6950.227,96.108,574.007,570.178,0.0
55763.0,STARLINK-5593,PAYLOAD,2023-11-01 22:51:57,14.98331642,0.0002712,70.0003,249.4736,271.9452,88.1396,2.6898e-05,2.28e-06,0.0,0 STARLINK-5593,1 55763U 23028Y   23305.95275422  .00000228  00000-0  26898-4 0  9999,2 55763  70.0003 249.4736 0002712 271.9452  88.1396 14.98331642 37416,6950.188,96.107,573.938,570.168,0.0
55763.0,STARLINK-5593,PAYLOAD,2023-11-02 06:52:37,14.9833451,0.0002534,70.0005,248.6323,262.9521,97.135,8.0891e-05,8.72e-06,0.0,0 STARLINK-5593,1 55763U 23028Y   23306.28655010  .00000872  00000-0  80891-4 0  9999,2 55763  70.0005 248.6323 0002534 262.9521  97.1350 14.98334510 37462,6950.179,96.107,573.805,570.283,0.0
55763.0,STARLINK-5593,PAYLOAD,2023-11-02 13:17:10,14.98329627,0.0002207,70.0017,247.9603,261.3716,98.7193,-1.7176e-05,-2.98e-06,0.0,0 STARLINK-5593,1 55763U 23028Y   23306.55359687 -.00000298  00000-0 -17176-4 0  9990,2 55763  70.0017 247.9603 0002207 261.3716  98.7193 14.98329627 37504,6950.194,96.107,573.593,570.525,0.0
55763.0,STARLINK-5593,PAYLOAD,2023-11-02 21:17:50,14.98329028,0.0002575,70.0008,247.1181,272.767,87.3194,3.9403e-05,3.77e-06,0.0,0 STARLINK-5593,1 55763U 23028Y   23306.88739393  .00000377  00000-0  39403-4 0  9995,2 55763  70.0008 247.1181 0002575 272.7670  87.3194 14.98329028 37555,6950.196,96.107,573.851,570.271,0.0
55763.0,STARLINK-5593,PAYLOAD,2023-11-03 13:19:11,14.98331833,0.0002558,70.0011,245.4347,269.7556,90.331,7.0373e-07,-8.5e-07,0.0,0 STARLINK-5593,1 55763U 23028Y   23307.55499237 -.00000085  00000-0  70373-6 0  9990,2 55763  70.0011 245.4347 0002558 269.7556  90.3310 14.98331833 37656,6950.187,96.107,573.83,570.274,0.0
55763.0,STARLINK-5593,PAYLOAD,2023-11-04 13:21:12,14.98318335,0.0002697,69.9997,242.9086,283.6807,76.4051,0.00015452,1.751e-05,0.0,0 STARLINK-5593,1 55763U 23028Y   23308.55639704  .00001751  00000-0  15452-3 0  9990,2 55763  69.9997 242.9086 0002697 283.6807  76.4051 14.98318335 37802,6950.229,96.108,573.968,570.219,0.0
55763.0,STARLINK-5593,PAYLOAD,2023-11-04 22:58:00,14.9832372,0.000303,69.9995,241.8983,271.0123,89.0689,4.6141e-05,4.57e-06,0.0,0 STARLINK-5593,1 55763U 23028Y   23308.95695422  .00000457  00000-0  46141-4 0  9995,2 55763  69.9995 241.8983 0003030 271.0123  89.0689 14.98323720 37865,6950.212,96.107,574.183,569.971,0.0
55763.0,STARLINK-5593,PAYLOAD,2023-11-05 03:46:24,14.9833395,0.0002756,69.9999,241.3932,270.2966,89.7877,3.2265e-05,2.92e-06,0.0,0 STARLINK-5593,1 55763U 23028Y   23309.15722853  .00000292  00000-0  32265-4 0  9996,2 55763  69.9999 241.3932 0002756 270.2966  89.7877 14.98333950 37893,6950.181,96.107,573.961,570.13,0.0
55763.0,STARLINK-5593,PAYLOAD,2023-11-05 13:23:12,14.98337631,0.0002636,70.001,240.3848,276.2761,83.8098,7.1909e-05,7.65e-06,0.0,0 STARLINK-5593,1 55763U 23028Y   23309.55778402  .00000765  00000-0  71909-4 0  9994,2 55763  70.0010 240.3848 0002636 276.2761  83.8098 14.98337631 37958,6950.169,96.107,573.866,570.202,0.0
55763.0,STARLINK-5593,PAYLOAD,2023-11-05 21:23:52,14.98338761,0.0002688,70.0012,239.5427,275.0939,84.9913,0.00016286,1.851e-05,0.0,0 STARLINK-5593,1 55763U 23028Y   23309.89157908  .00001851  00000-0  16286-3 0  9996,2 55763  70.0012 239.5427 0002688 275.0939  84.9913 14.98338761 38004,6950.166,96.106,573.899,570.163,0.0
55763.0,STARLINK-5593,PAYLOAD,2023-11-06 02:12:15,14.98355908,0.000298,69.9994,239.0379,273.1116,86.9702,0.00028623,3.326e-05,0.0,0 STARLINK-5593,1 55763U 23028Y   23310.09184236  .00003326  00000-0  28623-3 0  9991,2 55763  69.9994 239.0379 0002980 273.1116  86.9702 14.98355908 38035,6950.113,96.105,574.049,569.907,0.0
55763.0,STARLINK-5593,PAYLOAD,2023-11-06 05:24:30,14.98366506,0.0002851,70.0,238.7006,270.6345,89.4487,0.00037698,4.412e-05,0.0,0 STARLINK-5593,1 55763U 23028Y   23310.22535108  .00004412  00000-0  37698-3 0  9993,2 55763  70.0000 238.7006 0002851 270.6345  89.4487 14.98366506 38058,6950.08,96.105,573.926,569.964,0.0
